{
  "type": "FeatureCollection",
  "features": [
    {
      "type": "Feature",
      "properties": {
        "norad_id": 46277,
        "name": "NEMO-HD",
        "group": "resource",
        "lat": -17.954864047390014,
        "lon": -126.52093810184161,
        "alt_km": 450.40090047843023,
        "timestamp": "2025-12-22T20:43:45.500577+00:00",
        "meta_object_name": "NEMO-HD",
        "meta_object_id": "2020-061F",
        "meta_epoch": "2025-12-22T13:38:12.697728",
        "meta_mean_motion": 15.40516852,
        "meta_eccentricity": 0.00012459,
        "meta_inclination": 97.2194,
        "meta_ra_of_asc_node": 55.5415,
        "meta_arg_of_pericenter": 52.0829,
        "meta_mean_anomaly": 308.053,
        "meta_ephemeris_type": 0,
        "meta_classification_type": "U",
        "meta_norad_cat_id": 46277,
        "meta_element_set_no": 999,
        "meta_rev_at_epoch": 29475,
        "meta_bstar": 0.00026867498,
        "meta_mean_motion_dot": 0.00010824,
        "meta_mean_motion_ddot": 0,
        "tle_line1": "1 46277U 20061F   25356.56820252  .00010824  00000+0  26867-3 0  9992",
        "tle_line2": "2 46277  97.2194  55.5415 0001245  52.0829 308.0530 15.40516852294756"
      },
      "geometry": {
        "type": "Point",
        "coordinates": [
          -126.52093810184161,
          -17.954864047390014
        ]
      }
    },
    {
      "type": "Feature",
      "properties": {
        "norad_id": 46984,
        "name": "SENTINEL-6A",
        "group": "resource",
        "lat": -18.41445372175401,
        "lon": 132.76703352494425,
        "alt_km": 1339.74437982169,
        "timestamp": "2025-12-22T20:43:45.500587+00:00",
        "meta_object_name": "SENTINEL-6A",
        "meta_object_id": "2020-086A",
        "meta_epoch": "2025-12-22T09:35:29.912928",
        "meta_mean_motion": 12.80930798,
        "meta_eccentricity": 0.00077288,
        "meta_inclination": 66.0396,
        "meta_ra_of_asc_node": 142.244,
        "meta_arg_of_pericenter": 269.3733,
        "meta_mean_anomaly": 90.6397,
        "meta_ephemeris_type": 0,
        "meta_classification_type": "U",
        "meta_norad_cat_id": 46984,
        "meta_element_set_no": 999,
        "meta_rev_at_epoch": 23768,
        "meta_bstar": -5.4547464e-05,
        "meta_mean_motion_dot": -7.4e-07,
        "meta_mean_motion_ddot": 0,
        "tle_line1": "1 46984U 20086A   25356.39965177 -.00000074  00000+0 -54547-4 0  9996",
        "tle_line2": "2 46984  66.0396 142.2440 0007728 269.3733  90.6397 12.80930798237684"
      },
      "geometry": {
        "type": "Point",
        "coordinates": [
          132.76703352494425,
          -18.41445372175401
        ]
      }
    },
    {
      "type": "Feature",
      "properties": {
        "norad_id": 48079,
        "name": "GAOFEN-12 02",
        "group": "resource",
        "lat": -72.37747026147336,
        "lon": 17.048391298346722,
        "alt_km": 636.736896104795,
        "timestamp": "2025-12-22T20:43:45.500597+00:00",
        "meta_object_name": "GAOFEN-12 02",
        "meta_object_id": "2021-026A",
        "meta_epoch": "2025-12-22T14:34:36.622848",
        "meta_mean_motion": 14.80686212,
        "meta_eccentricity": 0.00035934,
        "meta_inclination": 97.9856,
        "meta_ra_of_asc_node": 350.5663,
        "meta_arg_of_pericenter": 81.3337,
        "meta_mean_anomaly": 278.8282,
        "meta_ephemeris_type": 0,
        "meta_classification_type": "U",
        "meta_norad_cat_id": 48079,
        "meta_element_set_no": 999,
        "meta_rev_at_epoch": 25563,
        "meta_bstar": 6.4244994e-05,
        "meta_mean_motion_dot": 4.41e-06,
        "meta_mean_motion_ddot": 0,
        "tle_line1": "1 48079U 21026A   25356.60736832  .00000441  00000+0  64245-4 0  9998",
        "tle_line2": "2 48079  97.9856 350.5663 0003593  81.3337 278.8282 14.80686212255633"
      },
      "geometry": {
        "type": "Point",
        "coordinates": [
          17.048391298346722,
          -72.37747026147336
        ]
      }
    },
    {
      "type": "Feature",
      "properties": {
        "norad_id": 48268,
        "name": "PLEIADES NEO 3",
        "group": "resource",
        "lat": 28.39935379203405,
        "lon": 64.85723097369437,
        "alt_km": 622.2909895635776,
        "timestamp": "2025-12-22T20:43:45.500607+00:00",
        "meta_object_name": "PLEIADES NEO 3",
        "meta_object_id": "2021-034A",
        "meta_epoch": "2025-12-22T14:07:01.589376",
        "meta_mean_motion": 14.8167613,
        "meta_eccentricity": 0.00013983,
        "meta_inclination": 97.8949,
        "meta_ra_of_asc_node": 68.8885,
        "meta_arg_of_pericenter": 88.8663,
        "meta_mean_anomaly": 271.271,
        "meta_ephemeris_type": 0,
        "meta_classification_type": "U",
        "meta_norad_cat_id": 48268,
        "meta_element_set_no": 999,
        "meta_rev_at_epoch": 25150,
        "meta_bstar": 8.7664641e-05,
        "meta_mean_motion_dot": 6.38e-06,
        "meta_mean_motion_ddot": 0,
        "tle_line1": "1 48268U 21034A   25356.58821284  .00000638  00000+0  87665-4 0  9999",
        "tle_line2": "2 48268  97.8949  68.8885 0001398  88.8663 271.2710 14.81676130251509"
      },
      "geometry": {
        "type": "Point",
        "coordinates": [
          64.85723097369437,
          28.39935379203405
        ]
      }
    },
    {
      "type": "Feature",
      "properties": {
        "norad_id": 49070,
        "name": "PLEIADES NEO 4",
        "group": "resource",
        "lat": -28.671549693617784,
        "lon": -115.19626102446723,
        "alt_km": 630.493523232446,
        "timestamp": "2025-12-22T20:43:45.500617+00:00",
        "meta_object_name": "PLEIADES NEO 4",
        "meta_object_id": "2021-073E",
        "meta_epoch": "2025-12-20T17:32:43.601280",
        "meta_mean_motion": 14.81672177,
        "meta_eccentricity": 0.00013249,
        "meta_inclination": 97.8951,
        "meta_ra_of_asc_node": 67.0538,
        "meta_arg_of_pericenter": 89.6187,
        "meta_mean_anomaly": 270.5178,
        "meta_ephemeris_type": 0,
        "meta_classification_type": "U",
        "meta_norad_cat_id": 49070,
        "meta_element_set_no": 999,
        "meta_rev_at_epoch": 23494,
        "meta_bstar": -3.6645539e-05,
        "meta_mean_motion_dot": -3.4e-06,
        "meta_mean_motion_ddot": 0,
        "tle_line1": "1 49070U 21073E   25354.73106020 -.00000340  00000+0 -36646-4 0  9998",
        "tle_line2": "2 49070  97.8951  67.0538 0001324  89.6187 270.5178 14.81672177234945"
      },
      "geometry": {
        "type": "Point",
        "coordinates": [
          -115.19626102446723,
          -28.671549693617784
        ]
      }
    },
    {
      "type": "Feature",
      "properties": {
        "norad_id": 49260,
        "name": "LANDSAT 9",
        "group": "resource",
        "lat": 50.7787494464434,
        "lon": 54.64110214883366,
        "alt_km": 697.2413227607612,
        "timestamp": "2025-12-22T20:43:45.500627+00:00",
        "meta_object_name": "LANDSAT 9",
        "meta_object_id": "2021-088A",
        "meta_epoch": "2025-12-22T04:00:46.820448",
        "meta_mean_motion": 14.57107311,
        "meta_eccentricity": 0.00010969,
        "meta_inclination": 98.2082,
        "meta_ra_of_asc_node": 64.1411,
        "meta_arg_of_pericenter": 92.1873,
        "meta_mean_anomaly": 267.9451,
        "meta_ephemeris_type": 0,
        "meta_classification_type": "U",
        "meta_norad_cat_id": 49260,
        "meta_element_set_no": 999,
        "meta_rev_at_epoch": 22522,
        "meta_bstar": 0.00010286136,
        "meta_mean_motion_dot": 4.18e-06,
        "meta_mean_motion_ddot": 0,
        "tle_line1": "1 49260U 21088A   25356.16720857  .00000418  00000+0  10286-3 0  9999",
        "tle_line2": "2 49260  98.2082  64.1411 0001096  92.1873 267.9451 14.57107311225222"
      },
      "geometry": {
        "type": "Point",
        "coordinates": [
          54.64110214883366,
          50.7787494464434
        ]
      }
    },
    {
      "type": "Feature",
      "properties": {
        "norad_id": 51444,
        "name": "CSG-2",
        "group": "resource",
        "lat": -76.48975324626328,
        "lon": -37.1663835270138,
        "alt_km": 630.9129539926098,
        "timestamp": "2025-12-22T20:43:45.500637+00:00",
        "meta_object_name": "CSG-2",
        "meta_object_id": "2022-008A",
        "meta_epoch": "2025-12-22T14:42:13.079232",
        "meta_mean_motion": 14.82154638,
        "meta_eccentricity": 0.00015044,
        "meta_inclination": 97.88,
        "meta_ra_of_asc_node": 177.7867,
        "meta_arg_of_pericenter": 84.586,
        "meta_mean_anomaly": 275.5525,
        "meta_ephemeris_type": 0,
        "meta_classification_type": "U",
        "meta_norad_cat_id": 51444,
        "meta_element_set_no": 999,
        "meta_rev_at_epoch": 21043,
        "meta_bstar": 0.0001138906,
        "meta_mean_motion_dot": 8.55e-06,
        "meta_mean_motion_ddot": 0,
        "tle_line1": "1 51444U 22008A   25356.61265138  .00000855  00000+0  11389-3 0  9995",
        "tle_line2": "2 51444  97.8800 177.7867 0001504  84.5860 275.5525 14.82154638210439"
      },
      "geometry": {
        "type": "Point",
        "coordinates": [
          -37.1663835270138,
          -76.48975324626328
        ]
      }
    }
  ]
}